KUIPER-00176            
1 65788U 25217AC  25305.17797356  .00073211  00000+0  19391-2 0  9999
2 65788  51.8709 265.1969 0002929 141.8160 218.3035 15.37689531  5653
KUIPER-00101            
1 65947U 25228A   25306.48547432  .00054697  00000+0  15957-2 0  9992
2 65947  51.8803 214.5048 0006287 201.6219 158.4502 15.34795821  4235
KUIPER-00113            
1 65948U 25228B   25306.48215377  .00025746  00000+0  75316-3 0  9992
2 65948  51.8806 214.4820 0006219 200.2521 159.8219 15.35076687  4235
KUIPER-00117            
1 65949U 25228C   25306.48269176  .00019572  00000+0  57667-3 0  9998
2 65949  51.8804 214.4852 0006092 200.5037 159.5706 15.35022195  4236
KUIPER-00121            
1 65950U 25228D   25306.29491073  .00032242  00000+0  95888-3 0  9998
2 65950  51.8807 215.4787 0005798 216.0676 143.9919 15.34438427  4200
KUIPER-00122            
1 65951U 25228E   25306.50002315 -.00972201  00000+0 -33197-1 0  9993
2 65951  51.8802 214.5330 0006712 238.5976 155.4571 15.32276660  2868
KUIPER-00123            
1 65952U 25228F   25306.50002315 -.00794064  00000+0 -27206-1 0  9997
2 65952  51.8804 214.5128 0005103 211.0680 184.1597 15.32088084  1303
KUIPER-00124            
1 65953U 25228G   25306.36218874  .00018776  00000+0  56751-3 0  9997
2 65953  51.8799 215.1771 0005563 227.1961 132.8557 15.34246726  4218
